{
  "norad_id": 30797,
  "name": "THEMIS D",
  "history": [
    {
      "epoch": "2026-03-28T19:50:41.758080",
      "apogee_km": 78126.25752955535,
      "perigee_km": 1230.274879675063,
      "latitude_deg": 6.538267120634492,
      "longitude_deg": -140.92026880010962,
      "semi_major_axis_km": 46056.40320461521,
      "eccentricity": 0.8348023,
      "inclination_deg": 6.9062,
      "raan_deg": 83.7001,
      "arg_perigee_deg": 219.3021,
      "mean_anomaly_deg": 118.6591,
      "mean_motion_rev_day": 0.87835026
    }
  ]
}